C/2021 X1 (Maury-Attard),e,140.1213,10.5847,334.6259,38881,0.0000001,0.99991683,0.0000,05/27.4809/2023,2000,g  7.0,4.0
# From MPEC 2022-VC5
A/2021 X2,h,07/08.1437/2022,137.1564,228.8098,193.2885,1.001485,2.994452,2000,16.0,2.0
# From MPEC 2022-VC5
C/2021 Y1 (ATLAS),h,04/30.6969/2023,77.1884,244.7697,245.8106,1.000857,2.032503,2000,7.0,4.0
# From MPEC 2022-ST7
C/2022 A1 (Sarneczky),e,116.5048,285.5281,201.2236,358.9718,0.0001449,0.99651002,0.0000,01/31.1685/2022,2000,g 18.0,4.0
# From MPEC 2022-VC5
C/2022 A2 (PANSTARRS),h,02/18.2632/2023,108.1471,171.5800,88.3646,1.000391,1.735306,2000,9.5,4.0
# From MPEC 2022-VC5
C/2022 A3 (Lemmon-ATLAS),e,88.3519,325.4837,234.8480,950.1638,0.0000337,0.99610238,0.0000,09/28.8363/2023,2000,g  8.0,4.0
# From MPEC 2022-K19
P/2022 B1 (Wierzchos),e,10.9904,148.8481,325.4757,5.465773,0.0771306,0.65301671,20.7220,11/21.0/2022,2000,g 16.5,4.0
# From MPEC 2022-K19
A/2022 B3,e,132.0523,286.1847,150.6910,870.0211,0.0000384,0.99574917,0.0000,01/17.5981/2022,2000,g 16.5,2.0
# From MPEC 2022-GA9
C/2022 B4 (Bok),e,20.0438,340.6582,152.9435,383.2351,0.0001314,0.99640079,0.0000,01/29.8897/2022,2000,g 21.0,4.0
# From MPEC 2022-H04
P/2022 C1 (PANSTARRS),e,4.7617,113.1410,9.3612,7.219123,0.0508133,0.44796442,19.3862,11/21.0/2022,2000,g 12.0,4.0
# From MPEC 2022-OB6
P/2022 C2 (PANSTARRS),e,9.9798,135.2691,89.2970,6.045040,0.0663140,0.44245243,7.0592,11/21.0/2022,2000,g 12.5,4.0
# From MPEC 2022-OB6
P/2022 C3 (PANSTARRS),e,12.8161,139.0553,93.9385,9.644869,0.0329048,0.54644428,4.6988,11/21.0/2022,2000,g 11.5,4.0
# From MPEC 2022-K19
P/2022 D1 (PANSTARRS),e,44.0705,47.9592,88.6968,7.401537,0.0489465,0.54711165,22.0250,11/21.0/2022,2000,g 12.5,4.0
# From MPEC 2022-K19
C/2022 D2 (Kowalski),e,22.6541,312.4643,177.7870,367.0459,0.0001402,0.99576351,0.0000,03/27.5704/2022,2000,g 17.0,4.0
# From MPEC 2022-L66
P/2022 E1 (Christensen),e,19.0047,113.3451,115.0853,3.781153,0.1340503,0.22104841,21.9105,11/21.0/2022,2000,g 13.5,4.0
# From MPEC 2022-V95
C/2022 E2 (ATLAS),h,09/13.8956/2024,137.1403,125.3593,41.6731,1.001233,3.667107,2000,5.0,4.0
# From MPEC 2022-VC5
C/2022 E3 (ZTF),h,01/12.7844/2023,109.1690,302.5548,145.8142,1.000318,1.112251,2000,7.5,4.0
# From MPEC 2022-ST7
C/2022 F1 (ATLAS),e,57.9718,350.6577,278.2642,25717,0.0000002,0.99976768,0.0000,08/05.1194/2022,2000,g  7.0,4.0
# From MPEC 2022-QD9
C/2022 F2 (NEOWISE),e,97.2934,58.6969,200.6270,23.88808,0.0084417,0.93364828,2.0475,11/21.0/2022,2000,g 14.5,4.0
# From MPEC 2022-P82
C/2022 H1 (PANSTARRS),e,49.8714,6.3684,246.2659,1026,0.0000300,0.99250554,0.0000,01/18.8766/2024,2000,g  6.0,4.0
# From MPEC 2022-VC5
C/2022 J1 (Maury-Attard),e,105.9327,280.7249,305.6636,47.63248,0.0029981,0.96631893,0.8244,11/21.0/2022,2000,g 14.9,4.0
# From MPEC 2022-VC5
C/2022 J2 (Bok),e,149.0926,252.5599,133.0637,92.18723,0.0011135,0.98017448,0.0000,10/27.0623/2022,2000,g 15.5,4.0
# From MPEC 2022-ST7
C/2022 K1 (Leonard),h,12/17.4839/2021,41.9722,136.2928,142.6662,1.002905,3.987458,2000,11.0,4.0
# From MPEC 2022-UE6
C/2022 L1 (Catalina),e,123.4688,300.0254,59.8555,540.3815,0.0000785,0.99705485,0.0000,09/28.2511/2022,2000,g 15.8,4.0
# From MPEC 2022-VC5
C/2022 L2 (ATLAS),h,03/12.3768/2024,129.3128,39.2442,199.9606,1.001160,2.691762,2000,6.5,4.0
# From MPEC 2022-VC5
P/2022 L3 (ATLAS),e,21.5427,29.8049,10.3267,6.506657,0.0593837,0.62809402,1.3092,11/21.0/2022,2000,g 16.5,4.0
# From MPEC 2022-N37
C/2022 L4 (PANSTARRS),e,141.2313,66.0503,125.3236,273.4170,0.0002180,0.98897277,0.0000,12/08.7420/2021,2000,g 14.0,4.0
# From MPEC 2022-VC5
P/2022 M1 (LONEOS-PANSTARRS),e,7.0256,322.9137,4.4631,4.892215,0.0910848,0.57865146,10.0782,11/21.0/2022,2000,g 17.0,4.0
# From MPEC 2022-VC5
C/2022 N1 (Attard-Maury),e,164.7409,301.8590,41.0753,37.00461,0.0043784,0.95995629,0.3150,11/21.0/2022,2000,g 16.9,4.0
# From MPEC 2022-QD9
C/2022 N2 (PANSTARRS),h,07/31.4215/2025,5.5019,319.7379,75.3451,1.004212,3.826301,2000,6.0,4.0
# From MPEC 2022-VC5
C/2022 O1 (ATLAS),h,02/15.8633/2022,71.0446,49.9090,268.9076,1.004718,7.430530,2000,6.0,4.0
# From MPEC 2022-VC5
P/2022 O2 (PANSTARRS),e,9.4251,330.4992,48.6388,6.314096,0.0621208,0.72176120,357.0738,11/21.0/2022,2000,g 16.0,4.0
# From MPEC 2022-VC5
C/2022 P1 (NEOWISE),e,154.6068,205.0820,249.9354,18.41984,0.0124674,0.91339874,359.9068,11/21.0/2022,2000,g 13.0,4.0
# From MPEC 2022-V95
P/2022 P2 (ZTF),e,12.4420,291.2384,137.6632,4.500442,0.1032336,0.55933080,13.7353,11/21.0/2022,2000,g 12.5,4.0
# From MPEC 2022-VC5
C/2022 P3 (ZTF),e,59.5186,72.2344,0.0905,241.8115,0.0002621,0.98940807,0.0000,07/27.3377/2022,2000,g 12.0,4.0
# From MPEC 2022-VC5
C/2022 Q2 (ATLAS),e,151.4851,352.9445,44.0721,32.61394,0.0052917,0.94959203,359.6211,11/21.0/2022,2000,g 13.0,4.0
# From MPEC 2022-VC5
C/2022 QE78 (ATLAS),h,09/09.9205/2025,36.5506,119.9278,0.3669,1.003405,5.480407,2000,5.0,4.0
# From MPEC 2022-VC5
P/2022 R1 (PANSTARRS),e,7.4086,176.1746,222.6558,7.180918,0.0512194,0.50305303,343.3324,11/21.0/2022,2000,g 11.5,4.0
# From MPEC 2022-VC5
C/2022 R2 (ATLAS),e,52.8949,60.4034,78.3773,420.7854,0.0001142,0.99849666,0.0000,10/25.2198/2022,2000,g 17.0,4.0
# From MPEC 2022-VC5
C/2022 R3 (Leonard),h,03/05.2838/2023,43.0822,8.2367,72.8660,1.000378,5.128442,2000,9.0,4.0
# From MPEC 2022-V95
P/2022 R4 (PANSTARRS),e,21.0214,176.6228,197.4272,3.836122,0.1311793,0.49022891,17.5299,11/21.0/2022,2000,g 16.5,4.0
# From MPEC 2022-V95
P/2022 R5 (PANSTARRS),e,15.2926,115.0686,240.6269,3.070832,0.1831555,0.19580338,32.4793,11/21.0/2022,2000,g 16.0,4.0
# From MPEC 2022-VC5
C/2022 R6 (PANSTARRS),h,08/25.8865/2025,57.0188,150.7504,319.8491,1.002541,6.570210,2000,5.0,4.0
# From MPEC 2022-V95
P/2022 S1 (PANSTARRS),e,34.5820,136.0925,262.7426,6.409601,0.0607376,0.50832856,5.7031,11/21.0/2022,2000,g 13.0,4.0
# From MPEC 2022-VC5
C/2022 S3 (PANSTARRS),h,01/21.6830/2023,78.5535,157.3231,267.9626,1.000369,0.838393,2000,17.0,4.0
# From MPEC 2022-VC5
C/2022 S4 (Lemmon),h,07/17.7702/2024,101.0481,220.1527,268.3182,1.001526,2.766821,2000,8.0,4.0
# From MPEC 2022-VC5
C/2022 S5 (PANSTARRS),e,136.5318,214.8573,232.7751,20.40814,0.0106905,0.89324098,359.9309,11/21.0/2022,2000,g 15.0,4.0
# From MPEC 2022-VC5
C/2022 U1 (Leonard),e,128.1059,72.4943,78.5446,953.3058,0.0000335,0.99559027,0.0000,03/26.3289/2024,2000,g  8.5,4.0
# From MPEC 2022-VC5
C/2022 U2 (ATLAS),e,48.2163,304.3492,148.0724,100.4447,0.0009791,0.98680113,0.0000,01/14.1631/2023,2000,g 16.0,4.0
# From MPEC 2022-VC5
C/2022 U3 (Bok),h,07/27.6730/2024,33.6200,272.8108,188.9444,1.002789,4.830437,2000,7.5,4.0
# From  98, 1083
1P/Halley,e,162.1830,59.3142,112.2327,17.87026,0.0130469,0.96661073,175.0505,11/21.0/2022,2000,g  4.0,6.0
# From MPEC 2022-VC5
2P/Encke,e,11.3809,334.1391,187.1835,2.219661,0.2980397,0.84744203,260.0579,11/21.0/2022,2000,g 11.5,6.0
# From MPEC 2022-PB4
4P/Faye,e,8.0090,192.9244,207.0375,3.826032,0.1316986,0.57680522,57.6954,11/21.0/2022,2000,g  8.0,6.0
# From MPEC 2022-L66
6P/d'Arrest,e,19.5115,138.9362,178.0881,3.496949,0.1507197,0.61255795,64.7028,11/21.0/2022,2000,g  7.5,16.0
# From MPEC 2021-Y10
7P/Pons-Winnecke,e,22.3698,93.3341,172.5533,3.410514,0.1564856,0.63850450,84.9684,11/21.0/2022,2000,g 10.0,6.0
# From MPEC 2022-HC2
8P/Tuttle,e,54.9241,270.1948,207.4762,5.703896,0.0723514,0.82017779,32.5779,11/21.0/2022,2000,g  8.0,8.0
# From MPEC 2022-VC5
9P/Tempel,e,10.4700,68.6890,179.4286,3.148524,0.1764183,0.50940896,46.0361,11/21.0/2022,2000,g  5.5,10.0
# From MPEC 2022-V95
10P/Tempel,e,12.0369,117.8140,195.5196,3.061385,0.1840039,0.53823445,111.6624,11/21.0/2022,2000,g  5.0,10.0
# From MPEC 2022-K19
11P/Tempel-Swift-LINEAR,e,14.4269,238.8772,167.9832,3.283841,0.1656269,0.57740827,119.9969,11/21.0/2022,2000,g 17.0,4.0
# From MPEC 2022-UE6
12P/Pons-Brooks,e,74.1786,255.8317,198.9764,17.19455,0.0138235,0.95455938,352.8519,11/21.0/2022,2000,g  5.0,6.0
# From  27, 604
13P/Olbers,e,44.6177,85.9398,64.3839,16.81353,0.0142960,0.93010946,351.5949,11/21.0/2022,2000,g  5.0,6.0
# From MPEC 2021-F20
14P/Wolf,e,27.9267,202.0407,159.0954,4.258039,0.1121733,0.35719707,203.3248,11/21.0/2022,2000,g  5.5,12.0
# From MPEC 2022-ED3
15P/Finlay,e,6.7980,13.7085,347.8641,3.507872,0.1500163,0.71704154,74.3329,11/21.0/2022,2000,g 12.0,4.0
# From MPEC 2022-C56
16P/Brooks,e,3.0115,138.8689,245.2403,3.658570,0.1408436,0.48643784,81.9126,11/21.0/2022,2000,g  7.5,10.0
# From MPEC 2022-UY9
17P/Holmes,e,19.0296,326.6261,24.5490,3.637537,0.1420669,0.42754130,90.7876,11/21.0/2022,2000,g 10.0,6.0
# From MPEC 2022-S20
19P/Borrelly,e,29.3046,74.2382,351.9314,3.606256,0.1439194,0.63777174,42.0467,11/21.0/2022,2000,g  4.5,10.0
# From MPEC 2021-F20
21P/Giacobini-Zinner,e,32.0583,195.3452,172.8863,3.494968,0.1508479,0.71124741,230.9741,11/21.0/2022,2000,g 11.4,4.0
# From MPEC 2022-VC5
22P/Kopff,e,4.7412,120.8063,163.0310,3.442227,0.1543280,0.54917916,38.2491,11/21.0/2022,2000,g  3.0,10.4
# From MPC 14747
23P/Brorsen-Metcalf,e,19.2131,312.1108,129.0831,16.94402,0.0141312,0.97199653,0.0000,08/08.0268/1989,2000,g 10.0,6.0
# From MPC110085
24P/Schaumasse,e,11.5057,78.3557,58.4301,4.054986,0.1207035,0.70770303,221.7920,11/21.0/2022,2000,g  6.5,14.0
# From MPEC 2022-K19
26P/Grigg-Skjellerup,e,22.4326,211.5399,2.1508,3.015144,0.1882530,0.64042622,284.8110,11/21.0/2022,2000,g 12.0,16.0
# From MPC 78188
27P/Crommelin,e,29.3354,250.6582,195.8703,9.181290,0.0354282,0.91888803,146.5939,11/21.0/2022,2000,g 12.0,8.0
# From MPEC 2022-F14
28P/Neujmin,e,14.3116,346.3362,347.4552,6.980309,0.0534432,0.77366195,33.0900,11/21.0/2022,2000,g  8.5,6.0
# From MPEC 2022-VC5
29P/Schwassmann-Wachmann,e,9.3645,312.3933,50.7730,6.046508,0.0662899,0.04477856,87.0439,11/21.0/2022,2000,g  4.0,4.0
# From MPEC 2022-TA0
30P/Reinmuth,e,8.0723,117.6226,9.4827,3.727795,0.1369387,0.51674609,273.0700,11/21.0/2022,2000,g  9.5,6.0
# From MPEC 2021-F20
31P/Schwassmann-Wachmann,e,4.5481,114.1051,17.9266,4.235845,0.1130561,0.19226436,139.7939,11/21.0/2022,2000,g 13.1,4.0
# From MPEC 2022-K19
32P/ComasSola,e,9.8989,54.6846,54.8486,4.549976,0.1015525,0.55716756,307.5574,11/21.0/2022,2000,g  6.5,8.0
# From MPEC 2013-O31
